IRIDIUM 150             
1 43257U 18030J   25064.58277262  .00000323  00000+0  10845-3 0  9997
2 43257  86.3971 126.3968 0002147  87.9663 272.1778 14.34217728362997
IRIDIUM 143             
1 43258U 18030K   25064.56374406  .00000224  00000+0  72902-4 0  9997
2 43258  86.3975 126.4791 0002112  83.7486 276.3950 14.34217606362922
IRIDIUM 161             
1 43478U 18047C   25064.56185511  .00000552  00000+0  15813-3 0  9997
2 43478  86.4445 284.2896 0002100  87.2127 272.9314 14.43282281357545
IRIDIUM 152             
1 43479U 18047D   25064.60623237  .00000008  00000+0 -41444-5 0  9993
2 43479  86.3918 284.1310 0002179  88.3733 271.7712 14.34216387355328
IRIDIUM 147             
1 43480U 18047E   25064.61257298  .00000214  00000+0  69460-4 0  9991
2 43480  86.3920 284.1249 0001965  94.0327 266.1094 14.34218106355321
IRIDIUM 110             
1 43481U 18047F   25064.54914835  .00000126  00000+0  37801-4 0  9997
2 43481  86.3923 284.2312 0002323  97.3983 262.7477 14.34217289355306
IRIDIUM 162             
1 43482U 18047G   25064.55554593  .00000553  00000+0  15839-3 0  9990
2 43482  86.4443 284.1886 0002424  88.5311 271.6167 14.43284772357532
IRIDIUM 160             
1 43569U 18061A   25064.56475007  .00000014  00000+0 -21405-5 0  9996
2 43569  86.3918 252.5709 0002149  96.3187 263.8254 14.34217524346202
